{"type": "FeatureCollection", "features": [ {"type": "Feature", "properties": {"norad_id": 28659, "name": "DIRECTV 8", "group": "intelsat", "lat": 0.003863645223017265, "lon": -151.2814118271521, "alt_km": 35782.97523232844, "timestamp": "2025-12-26T15:29:39.105732+00:00", "meta": {"OBJECT_NAME": "DIRECTV 8", "OBJECT_ID": "2005-019A", "EPOCH": "2025-12-26T05:50:36.893184", "MEAN_MOTION": 1.0027176, "ECCENTRICITY": 0.00031191, "INCLINATION": 0.0131, "RA_OF_ASC_NODE": 55.59, "ARG_OF_PERICENTER": 229.6508, "MEAN_ANOMALY": 138.3642, "EPHEMERIS_TYPE": 0, "CLASSIFICATION_TYPE": "U", "NORAD_CAT_ID": 28659, "ELEMENT_SET_NO": 999, "REV_AT_EPOCH": 7533, "BSTAR": 0, "MEAN_MOTION_DOT": 2.3e-07, "MEAN_MOTION_DDOT": 0}, "tle": {"line1": "1 28659U 05019A   25360.24348256  .00000023  00000+0  00000+0 0  9998", "line2": "2 28659   0.0131  55.5900 0003119 229.6508 138.3642  1.00271760 75336"}}, "geometry": {"type": "Point", "coordinates": [-151.2814118271521, 0.003863645223017265]}}, {"type": "Feature", "properties": {"norad_id": 28702, "name": "GALAXY 28 (G-28)", "group": "intelsat", "lat": 0.6829275174869073, "lon": -113.00374698091143, "alt_km": 35679.769836042506, "timestamp": "2025-12-26T15:29:39.105744+00:00", "meta": {"OBJECT_NAME": "GALAXY 28 (G-28)", "OBJECT_ID": "2005-022A", "EPOCH": "2025-12-26T06:10:59.834208", "MEAN_MOTION": 1.00599742, "ECCENTRICITY": 0.00034714, "INCLINATION": 2.8544, "RA_OF_ASC_NODE": 81.1244, "ARG_OF_PERICENTER": 160.5701, "MEAN_ANOMALY": 224.7813, "EPHEMERIS_TYPE": 0, "CLASSIFICATION_TYPE": "U", "NORAD_CAT_ID": 28702, "ELEMENT_SET_NO": 999, "REV_AT_EPOCH": 5024, "BSTAR": 0, "MEAN_MOTION_DOT": -2.32e-06, "MEAN_MOTION_DDOT": 0}, "tle": {"line1": "1 28702U 05022A   25360.25763697 -.00000232  00000+0  00000+0 0  9995", "line2": "2 28702   2.8544  81.1244 0003471 160.5701 224.7813  1.00599742 50244"}}, "geometry": {"type": "Point", "coordinates": [-113.00374698091143, 0.6829275174869073]}}, {"type": "Feature", "properties": {"norad_id": 29236, "name": "GALAXY 16 (G-16)", "group": "intelsat", "lat": 0.004204022227585148, "lon": -131.24890171016676, "alt_km": 35778.75989672537, "timestamp": "2025-12-26T15:29:39.105756+00:00", "meta": {"OBJECT_NAME": "GALAXY 16 (G-16)", "OBJECT_ID": "2006-023A", "EPOCH": "2025-12-26T02:31:07.100256", "MEAN_MOTION": 1.00269716, "ECCENTRICITY": 0.00027889, "INCLINATION": 0.0031, "RA_OF_ASC_NODE": 236.6116, "ARG_OF_PERICENTER": 40.0302, "MEAN_ANOMALY": 116.978, "EPHEMERIS_TYPE": 0, "CLASSIFICATION_TYPE": "U", "NORAD_CAT_ID": 29236, "ELEMENT_SET_NO": 999, "REV_AT_EPOCH": 7123, "BSTAR": 0, "MEAN_MOTION_DOT": 0, "MEAN_MOTION_DDOT": 0}, "tle": {"line1": "1 29236U 06023A   25360.10494329  .00000000  00000+0  00000+0 0  9999", "line2": "2 29236   0.0031 236.6116 0002788  40.0302 116.9780  1.00269716 71234"}}, "geometry": {"type": "Point", "coordinates": [-131.24890171016676, 0.004204022227585148]}}, {"type": "Feature", "properties": {"norad_id": 29494, "name": "DIRECTV 9S", "group": "intelsat", "lat": 1.1639668329216988, "lon": -133.41936898713797, "alt_km": 35778.29656398631, "timestamp": "2025-12-26T15:29:39.105768+00:00", "meta": {"OBJECT_NAME": "DIRECTV 9S", "OBJECT_ID": "2006-043A", "EPOCH": "2025-12-26T01:32:00.301632", "MEAN_MOTION": 1.00271558, "ECCENTRICITY": 0.00030532, "INCLINATION": 1.9726, "RA_OF_ASC_NODE": 83.07, "ARG_OF_PERICENTER": 196.9132, "MEAN_ANOMALY": 96.6295, "EPHEMERIS_TYPE": 0, "CLASSIFICATION_TYPE": "U", "NORAD_CAT_ID": 29494, "ELEMENT_SET_NO": 999, "REV_AT_EPOCH": 4964, "BSTAR": 0, "MEAN_MOTION_DOT": -9.2e-07, "MEAN_MOTION_DDOT": 0}, "tle": {"line1": "1 29494U 06043A   25360.06389238 -.00000092  00000+0  00000+0 0  9996", "line2": "2 29494   1.9726  83.0700 0003053 196.9132  96.6295  1.00271558 49644"}}, "geometry": {"type": "Point", "coordinates": [-133.41936898713797, 1.1639668329216988]}}, {"type": "Feature", "properties": {"norad_id": 31307, "name": "GALAXY 17 (G-17)", "group": "intelsat", "lat": 0.824443512303455, "lon": -117.18729012441926, "alt_km": 35762.75025853456, "timestamp": "2025-12-26T15:29:39.105780+00:00", "meta": {"OBJECT_NAME": "GALAXY 17 (G-17)", "OBJECT_ID": "2007-016B", "EPOCH": "2025-12-26T06:09:02.888352", "MEAN_MOTION": 1.00271899, "ECCENTRICITY": 0.00056352, "INCLINATION": 2.532, "RA_OF_ASC_NODE": 82.1295, "ARG_OF_PERICENTER": 173.5146, "MEAN_ANOMALY": 206.6352, "EPHEMERIS_TYPE": 0, "CLASSIFICATION_TYPE": "U", "NORAD_CAT_ID": 31307, "ELEMENT_SET_NO": 999, "REV_AT_EPOCH": 6807, "BSTAR": 0, "MEAN_MOTION_DOT": -1.85e-06, "MEAN_MOTION_DDOT": 0}, "tle": {"line1": "1 31307U 07016B   25360.25628343 -.00000185  00000+0  00000+0 0  9990", "line2": "2 31307   2.5320  82.1295 0005635 173.5146 206.6352  1.00271899 68073"}}, "geometry": {"type": "Point", "coordinates": [-117.18729012441926, 0.824443512303455]}}, {"type": "Feature", "properties": {"norad_id": 31862, "name": "DIRECTV 10", "group": "intelsat", "lat": -0.0017634570205277721, "lon": -134.95342160906094, "alt_km": 35780.44978102446, "timestamp": "2025-12-26T15:29:39.105791+00:00", "meta": {"OBJECT_NAME": "DIRECTV 10", "OBJECT_ID": "2007-032A", "EPOCH": "2025-12-25T09:09:15.831072", "MEAN_MOTION": 1.00280696, "ECCENTRICITY": 7.66e-05, "INCLINATION": 0.0126, "RA_OF_ASC_NODE": 126.575, "ARG_OF_PERICENTER": 111.4706, "MEAN_ANOMALY": 250.6263, "EPHEMERIS_TYPE": 0, "CLASSIFICATION_TYPE": "U", "NORAD_CAT_ID": 31862, "ELEMENT_SET_NO": 999, "REV_AT_EPOCH": 4385, "BSTAR": 0, "MEAN_MOTION_DOT": -8.3e-07, "MEAN_MOTION_DDOT": 0}, "tle": {"line1": "1 31862U 07032A   25359.38143323 -.00000083  00000+0  00000+0 0  9993", "line2": "2 31862   0.0126 126.5750 0000766 111.4706 250.6263  1.00280696 43852"}}, "geometry": {"type": "Point", "coordinates": [-134.95342160906094, -0.0017634570205277721]}}, {"type": "Feature", "properties": {"norad_id": 32253, "name": "INTELSAT 11 (IS-11)", "group": "intelsat", "lat": 2.4531719287274125, "lon": 132.255734627486, "alt_km": 36149.583443485666, "timestamp": "2025-12-26T15:29:39.105802+00:00", "meta": {"OBJECT_NAME": "INTELSAT 11 (IS-11)", "OBJECT_ID": "2007-044B", "EPOCH": "2025-12-26T05:07:38.649792", "MEAN_MOTION": 0.99053068, "ECCENTRICITY": 0.00086433, "INCLINATION": 3.1133, "RA_OF_ASC_NODE": 80.8253, "ARG_OF_PERICENTER": 171.7827, "MEAN_ANOMALY": 85.7476, "EPHEMERIS_TYPE": 0, "CLASSIFICATION_TYPE": "U", "NORAD_CAT_ID": 32253, "ELEMENT_SET_NO": 999, "REV_AT_EPOCH": 6673, "BSTAR": 0, "MEAN_MOTION_DOT": -2.11e-06, "MEAN_MOTION_DDOT": 0}, "tle": {"line1": "1 32253U 07044B   25360.21364178 -.00000211  00000+0  00000+0 0  9991", "line2": "2 32253   3.1133  80.8253 0008643 171.7827  85.7476  0.99053068 66737"}}, "geometry": {"type": "Point", "coordinates": [132.255734627486, 2.4531719287274125]}}, {"type": "Feature", "properties": {"norad_id": 32388, "name": "HORIZONS-2", "group": "intelsat", "lat": 0.3153534044860874, "lon": -106.03409388686867, "alt_km": 35768.450488130205, "timestamp": "2025-12-26T15:29:39.105814+00:00", "meta": {"OBJECT_NAME": "HORIZONS-2", "OBJECT_ID": "2007-063B", "EPOCH": "2025-12-26T06:14:53.168640", "MEAN_MOTION": 1.0026905, "ECCENTRICITY": 0.00048408, "INCLINATION": 2.1547, "RA_OF_ASC_NODE": 82.8127, "ARG_OF_PERICENTER": 197.3042, "MEAN_ANOMALY": 194.8048, "EPHEMERIS_TYPE": 0, "CLASSIFICATION_TYPE": "U", "NORAD_CAT_ID": 32388, "ELEMENT_SET_NO": 999, "REV_AT_EPOCH": 6608, "BSTAR": 0, "MEAN_MOTION_DOT": -2.32e-06, "MEAN_MOTION_DDOT": 0}, "tle": {"line1": "1 32388U 07063B   25360.26033760 -.00000232  00000+0  00000+0 0  9999", "line2": "2 32388   2.1547  82.8127 0004840 197.3042 194.8048  1.00269050 66082"}}, "geometry": {"type": "Point", "coordinates": [-106.03409388686867, 0.3153534044860874]}}, {"type": "Feature", "properties": {"norad_id": 32729, "name": "DIRECTV 11", "group": "intelsat", "lat": 0.0030201517746415644, "lon": -131.47203669033374, "alt_km": 35785.09002205962, "timestamp": "2025-12-26T15:29:39.105826+00:00", "meta": {"OBJECT_NAME": "DIRECTV 11", "OBJECT_ID": "2008-013A", "EPOCH": "2025-12-24T22:53:59.758368", "MEAN_MOTION": 1.00260442, "ECCENTRICITY": 0.0001047, "INCLINATION": 0.0475, "RA_OF_ASC_NODE": 199.7105, "ARG_OF_PERICENTER": 11.4593, "MEAN_ANOMALY": 126.8496, "EPHEMERIS_TYPE": 0, "CLASSIFICATION_TYPE": "U", "NORAD_CAT_ID": 32729, "ELEMENT_SET_NO": 999, "REV_AT_EPOCH": 4384, "BSTAR": 0, "MEAN_MOTION_DOT": -1.03e-06, "MEAN_MOTION_DDOT": 0}, "tle": {"line1": "1 32729U 08013A   25358.95416387 -.00000103  00000+0  00000+0 0  9994", "line2": "2 32729   0.0475 199.7105 0001047  11.4593 126.8496  1.00260442 43842"}}, "geometry": {"type": "Point", "coordinates": [-131.47203669033374, 0.0030201517746415644]}}, {"type": "Feature", "properties": {"norad_id": 32951, "name": "GALAXY 18 (G-18)", "group": "intelsat", "lat": -0.01531531770841712, "lon": -155.24443273679418, "alt_km": 35783.17316942082, "timestamp": "2025-12-26T15:29:39.105838+00:00", "meta": {"OBJECT_NAME": "GALAXY 18 (G-18)", "OBJECT_ID": "2008-024A", "EPOCH": "2025-12-26T05:48:41.061888", "MEAN_MOTION": 1.00271927, "ECCENTRICITY": 0.000322, "INCLINATION": 0.0165, "RA_OF_ASC_NODE": 352.4727, "ARG_OF_PERICENTER": 290.2887, "MEAN_ANOMALY": 136.3978, "EPHEMERIS_TYPE": 0, "CLASSIFICATION_TYPE": "U", "NORAD_CAT_ID": 32951, "ELEMENT_SET_NO": 999, "REV_AT_EPOCH": 4411, "BSTAR": 0, "MEAN_MOTION_DOT": 4.7e-07, "MEAN_MOTION_DDOT": 0}, "tle": {"line1": "1 32951U 08024A   25360.24214192  .00000047  00000+0  00000+0 0  9994", "line2": "2 32951   0.0165 352.4727 0003220 290.2887 136.3978  1.00271927 44113"}}, "geometry": {"type": "Point", "coordinates": [-155.24443273679418, -0.01531531770841712]}}]}